CTC1_L_00142016-03
1 80225U 25953KI  26070.40832176  .00000000  00000+0  00000-0 0  9996
2 80225  90.0000 180.0000 0000000   0.0000   0.0000 14.15679949    13
CTC1_L_00142016-04
1 80226U 25540PA  26070.40832176  .00000000  00000+0  00000-0 0  9999
2 80226  90.0000 180.0000 0000000   0.0000  90.0000 14.15679949    13
CTC1_L_00142017-01
1 80227U 22576RK  26070.40832176  .00000000  00000+0  00000-0 0  9996
2 80227  90.0000 192.0000 0000000   0.0000 192.0000 14.15679949    10
CTC1_L_00142017-02
1 80228U 26982BL  26070.40832176  .00000000  00000+0  00000-0 0  9992
2 80228  90.0000 192.0000 0000000   0.0000 282.0000 14.15679949    11
CTC1_L_00142017-03
1 80229U 24634YC  26070.40832176  .00000000  00000+0  00000-0 0  9995
2 80229  90.0000 192.0000 0000000   0.0000  12.0000 14.15679949    13
CTC1_L_00142017-04
1 80230U 23916PX  26070.40832176  .00000000  00000+0  00000-0 0  9999
2 80230  90.0000 192.0000 0000000   0.0000 102.0000 14.15679949    15
CTC1_L_00142018-01
1 80231U 24273VX  26070.40832176  .00000000  00000+0  00000-0 0  9997
2 80231  90.0000 204.0000 0000000   0.0000 204.0000 14.15679949    13
CTC1_L_00142018-02
1 80232U 25355GP  26070.40832176  .00000000  00000+0  00000-0 0  9990
2 80232  90.0000 204.0000 0000000   0.0000 294.0000 14.15679949    13
CTC1_L_00142018-03
1 80233U 23480DR  26070.40832176  .00000000  00000+0  00000-0 0  9998
2 80233  90.0000 204.0000 0000000   0.0000  24.0000 14.15679949    15
CTC1_L_00142018-04
1 80234U 26995IC  26070.40832176  .00000000  00000+0  00000-0 0  9993
2 80234  90.0000 204.0000 0000000   0.0000 114.0000 14.15679949    16
CTC1_L_00142019-01
1 80235U 26397SZ  26070.40832176  .00000000  00000+0  00000-0 0  9990
2 80235  90.0000 216.0000 0000000   0.0000 216.0000 14.15679949    13
CTC1_L_00142019-02
1 80236U 22897GJ  26070.40832176  .00000000  00000+0  00000-0 0  9992
2 80236  90.0000 216.0000 0000000   0.0000 306.0000 14.15679949    14
CTC1_L_00142019-03
1 80237U 26814TO  26070.40832176  .00000000  00000+0  00000-0 0  9996
2 80237  90.0000 216.0000 0000000   0.0000  36.0000 14.15679949    15
CTC1_L_00142019-04
1 80238U 22059TI  26070.40832176  .00000000  00000+0  00000-0 0  9994
2 80238  90.0000 216.0000 0000000   0.0000 126.0000 14.15679949    16
CTC1_L_00142020-01
1 80239U 26034ZJ  26070.40832176  .00000000  00000+0  00000-0 0  9992
2 80239  90.0000 228.0000 0000000   0.0000 228.0000 14.15679949    13
CTC1_L_00142020-02
1 80240U 23733TK  26070.40832176  .00000000  00000+0  00000-0 0  9997
2 80240  90.0000 228.0000 0000000   0.0000 318.0000 14.15679949    15
CTC1_L_00142020-03
1 80241U 26832EA  26070.40832176  .00000000  00000+0  00000-0 0  9991
2 80241  90.0000 228.0000 0000000   0.0000  48.0000 14.15679949    16
CTC1_L_00142020-04
1 80242U 25384AP  26070.40832176  .00000000  00000+0  00000-0 0  9993
2 80242  90.0000 228.0000 0000000   0.0000 138.0000 14.15679949    17
CTC1_L_00142021-01
1 80243U 24806XJ  26070.40832176  .00000000  00000+0  00000-0 0  9992
2 80243  90.0000 240.0000 0000000   0.0000 240.0000 14.15679949    16
CTC1_L_00142021-02
1 80244U 22050BX  26070.40832176  .00000000  00000+0  00000-0 0  9992
2 80244  90.0000 240.0000 0000000   0.0000 330.0000 14.15679949    17
CTC1_L_00142021-03
1 80245U 26394JD  26070.40832176  .00000000  00000+0  00000-0 0  9998
2 80245  90.0000 240.0000 0000000   0.0000  60.0000 14.15679949    18
CTC1_L_00142021-04
1 80246U 22690ZQ  26070.40832176  .00000000  00000+0  00000-0 0  9994
2 80246  90.0000 240.0000 0000000   0.0000 150.0000 14.15679949    19
CTC1_L_00142022-01
1 80247U 24719WP  26070.40832176  .00000000  00000+0  00000-0 0  9999
2 80247  90.0000 252.0000 0000000   0.0000 252.0000 14.15679949    16
CTC1_L_00142022-02
1 80248U 22647RH  26070.40832176  .00000000  00000+0  00000-0 0  9998
2 80248  90.0000 252.0000 0000000   0.0000 342.0000 14.15679949    17
CTC1_L_00142022-03
1 80249U 24081OI  26070.40832176  .00000000  00000+0  00000-0 0  9993
2 80249  90.0000 252.0000 0000000   0.0000  72.0000 14.15679949    18
CTC1_L_00142022-04
1 80250U 25611FF  26070.40832176  .00000000  00000+0  00000-0 0  9995
2 80250  90.0000 252.0000 0000000   0.0000 162.0000 14.15679949    10
CTC1_L_00142023-01
1 80251U 23403QI  26070.40832176  .00000000  00000+0  00000-0 0  9993
2 80251  90.0000 264.0000 0000000   0.0000 264.0000 14.15679949    17
CTC1_L_00142023-02
1 80252U 23339SI  26070.40832176  .00000000  00000+0  00000-0 0  9992
2 80252  90.0000 264.0000 0000000   0.0000 354.0000 14.15679949    18
CTC1_L_00142023-03
1 80253U 23502KQ  26070.40832176  .00000000  00000+0  00000-0 0  9995
2 80253  90.0000 264.0000 0000000   0.0000  84.0000 14.15679949    19
CTC1_L_00142023-04
1 80254U 25973DR  26070.40832176  .00000000  00000+0  00000-0 0  9990
2 80254  90.0000 264.0000 0000000   0.0000 174.0000 14.15679949    10
CTC1_L_00142024-01
1 80255U 26817VU  26070.40832176  .00000000  00000+0  00000-0 0  9999
2 80255  90.0000 276.0000 0000000   0.0000 276.0000 14.15679949    17
CTC1_L_00142024-02
1 80256U 24615OG  26070.40832176  .00000000  00000+0  00000-0 0  9994
2 80256  90.0000 276.0000 0000000   0.0000   6.0000 14.15679949    19
CTC1_L_00142024-03
1 80257U 23728LA  26070.40832176  .00000000  00000+0  00000-0 0  9999
2 80257  90.0000 276.0000 0000000   0.0000  96.0000 14.15679949    19
CTC1_L_00142024-04
1 80258U 23124LS  26070.40832176  .00000000  00000+0  00000-0 0  9990
2 80258  90.0000 276.0000 0000000   0.0000 186.0000 14.15679949    10
CTC1_L_00142025-01
1 80259U 24632BW  26070.40832176  .00000000  00000+0  00000-0 0  9996
2 80259  90.0000 288.0000 0000000   0.0000 288.0000 14.15679949    17
CTC1_L_00142025-02
1 80260U 22525BE  26070.40832176  .00000000  00000+0  00000-0 0  9997
2 80260  90.0000 288.0000 0000000   0.0000  18.0000 14.15679949    10
CTC1_L_00142025-03
1 80261U 25818XW  26070.40832176  .00000000  00000+0  00000-0 0  9996
2 80261  90.0000 288.0000 0000000   0.0000 108.0000 14.15679949    11
CTC1_L_00142025-04
1 80262U 24565LY  26070.40832176  .00000000  00000+0  00000-0 0  9995
2 80262  90.0000 288.0000 0000000   0.0000 198.0000 14.15679949    11
CTC1_L_00142026-01
1 80263U 23425LN  26070.40832176  .00000000  00000+0  00000-0 0  9990
2 80263  90.0000 300.0000 0000000   0.0000 300.0000 14.15679949    12
CTC1_L_00142026-02
1 80264U 24272WG  26070.40832176  .00000000  00000+0  00000-0 0  9992
2 80264  90.0000 300.0000 0000000   0.0000  30.0000 14.15679949    13
CTC1_L_00142026-03
1 80265U 24060PF  26070.40832176  .00000000  00000+0  00000-0 0  9998
2 80265  90.0000 300.0000 0000000   0.0000 120.0000 14.15679949    14
CTC1_L_00142026-04
1 80266U 26966GE  26070.40832176  .00000000  00000+0  00000-0 0  9996
2 80266  90.0000 300.0000 0000000   0.0000 210.0000 14.15679949    15
CTC1_L_00142027-01
1 80267U 25058TV  26070.40832176  .00000000  00000+0  00000-0 0  9998
2 80267  90.0000 312.0000 0000000   0.0000 312.0000 14.15679949    12
CTC1_L_00142027-02
1 80268U 25959WB  26070.40832176  .00000000  00000+0  00000-0 0  9999
2 80268  90.0000 312.0000 0000000   0.0000  42.0000 14.15679949    13
CTC1_L_00142027-03
1 80269U 22649SG  26070.40832176  .00000000  00000+0  00000-0 0  9993
2 80269  90.0000 312.0000 0000000   0.0000 132.0000 14.15679949    14
CTC1_L_00142027-04
1 80270U 25674FO  26070.40832176  .00000000  00000+0  00000-0 0  9996
2 80270  90.0000 312.0000 0000000   0.0000 222.0000 14.15679949    16
CTC1_L_00142028-01
1 80271U 22766HF  26070.40832176  .00000000  00000+0  00000-0 0  9996
2 80271  90.0000 324.0000 0000000   0.0000 324.0000 14.15679949    13
CTC1_L_00142028-02
1 80272U 26738VB  26070.40832176  .00000000  00000+0  00000-0 0  9990
2 80272  90.0000 324.0000 0000000   0.0000  54.0000 14.15679949    14
CTC1_L_00142028-03
1 80273U 26088JZ  26070.40832176  .00000000  00000+0  00000-0 0  9999
2 80273  90.0000 324.0000 0000000   0.0000 144.0000 14.15679949    15
CTC1_L_00142028-04
1 80274U 26044CU  26070.40832176  .00000000  00000+0  00000-0 0  9992
2 80274  90.0000 324.0000 0000000   0.0000 234.0000 14.15679949    16
CTC1_L_00142029-01
1 80275U 24321WB  26070.40832176  .00000000  00000+0  00000-0 0  9999
2 80275  90.0000 336.0000 0000000   0.0000 336.0000 14.15679949    13
CTC1_L_00142029-02
1 80276U 24257DA  26070.40832176  .00000000  00000+0  00000-0 0  9998
2 80276  90.0000 336.0000 0000000   0.0000  66.0000 14.15679949    14
CTC1_L_00142029-03
1 80277U 26405XH  26070.40832176  .00000000  00000+0  00000-0 0  9996
2 80277  90.0000 336.0000 0000000   0.0000 156.0000 14.15679949    15
CTC1_L_00142029-04
1 80278U 25603KV  26070.40832176  .00000000  00000+0  00000-0 0  9996
2 80278  90.0000 336.0000 0000000   0.0000 246.0000 14.15679949    16
CTC1_L_00142030-01
1 80279U 24475LA  26070.40832176  .00000000  00000+0  00000-0 0  9993
2 80279  90.0000 348.0000 0000000   0.0000 348.0000 14.15679949    13
CTC1_L_00142030-02
1 80280U 22978IH  26070.40832176  .00000000  00000+0  00000-0 0  9991
2 80280  90.0000 348.0000 0000000   0.0000  78.0000 14.15679949    15
CTC1_L_00142030-03
1 80281U 24107OF  26070.40832176  .00000000  00000+0  00000-0 0  9998
2 80281  90.0000 348.0000 0000000   0.0000 168.0000 14.15679949    16
CTC1_L_00142030-04
1 80282U 26079ZQ  26070.40832176  .00000000  00000+0  00000-0 0  9999
2 80282  90.0000 348.0000 0000000   0.0000 258.0000 14.15679949    17
